     2.11           N: GPS NAV DATA                         RINEX VERSION / TYPE
teqc  2016Apr1      IGN                 20240116 18:30:03UTCPGM / RUN BY / DATE
    18                                                      LEAP SECONDS
    2.4214D-08  7.4506D-09 -1.1921D-07  1.1921D-07          ION ALPHA
    1.4541D+05 -1.8022D+05  0.0000D+00  1.3107D+05          ION BETA
   -3.725290298462D-09-1.421085471520D-14   405504     2297 DELTA-UTC: A0,A1,T,W
                                                            END OF HEADER
25 24  1 16 14  0  0.0 4.854574799538D-04 1.364242052659D-12 0.000000000000D+00
    7.100000000000D+01 5.868750000000D+01 5.149857429387D-09 3.529670956392D-01
    3.116205334663D-06 1.174881262705D-02 6.375834345818D-06 5.153622560501D+03
    2.232000000000D+05-1.210719347000D-07 2.291413992145D+00 7.636845111847D-08
    9.510653806277D-01 2.507500000000D+02 1.068500180007D+00-8.651074523414D-09
    7.857470230022D-11 1.000000000000D+00 2.297000000000D+03 0.000000000000D+00
    2.000000000000D+00 0.000000000000D+00 5.587935447693D-09 7.100000000000D+01
    2.160300000000D+05
13 24  1 16 14  0  0.0 6.164228543639D-04 3.751665644813D-12 0.000000000000D+00
    4.300000000000D+01-7.781250000000D+01 4.386254026656D-09-2.580861578307D+00
   -4.144385457039D-06 7.757245562971D-03 9.117648005486D-06 5.153660917282D+03
    2.232000000000D+05 1.415610313416D-07 3.526795356840D-01-5.401670932770D-08
    9.711224366103D-01 2.069687500000D+02 9.478750942309D-01-7.939974011606D-09
   -1.946509620154D-10 1.000000000000D+00 2.297000000000D+03 0.000000000000D+00
    2.000000000000D+00 0.000000000000D+00-1.117587089539D-08 4.300000000000D+01
    2.160300000000D+05
24 24  1 16 14  0  0.0-4.148920997977D-04-7.162270776462D-12 0.000000000000D+00
    3.900000000000D+01-7.937500000000D+00 5.025566629513D-09 2.233443014952D+00
   -5.513429641724D-07 1.505587948486D-02 1.294910907745D-05 5.153736316681D+03
    2.232000000000D+05-7.450580596924D-08 1.166004974913D+00-3.296881914139D-07
    9.337318670287D-01 1.116250000000D+02 9.634149810267D-01-8.057835287900D-09
    8.786080196721D-11 1.000000000000D+00 2.297000000000D+03 0.000000000000D+00
    2.000000000000D+00 0.000000000000D+00 2.328306436539D-09 3.900000000000D+01
    2.160300000000D+05
17 24  1 16 14  0  0.0 7.197353988886D-04-9.094947017729D-13 0.000000000000D+00
    1.270000000000D+02-2.065625000000D+01 4.295178879232D-09-2.219417096225D+00
   -9.518116712570D-07 1.368119625840D-02 7.966533303261D-06 5.153652484894D+03
    2.232000000000D+05 1.583248376846D-07-2.867820127854D+00 2.235174179077D-07
    9.712090091764D-01 2.313437500000D+02-1.345770501909D+00-7.846398197842D-09
   -4.396611685831D-10 1.000000000000D+00 2.297000000000D+03 0.000000000000D+00
    2.800000000000D+00 0.000000000000D+00-1.117587089539D-08 1.270000000000D+02
    2.160300000000D+05
19 24  1 16 14  0  0.0 4.273555241525D-04 5.229594535194D-12 0.000000000000D+00
    8.200000000000D+01-2.300000000000D+01 4.399468789273D-09-1.765695074230D-01
   -1.287087798119D-06 9.408786077984D-03 8.290633559227D-06 5.153677022934D+03
    2.232000000000D+05 4.470348358154D-08-2.823441374158D+00-1.657754182816D-07
    9.703524121243D-01 2.301562500000D+02 2.470918898822D+00-8.175697452373D-09
   -4.464471570209D-10 1.000000000000D+00 2.297000000000D+03 0.000000000000D+00
    2.000000000000D+00 0.000000000000D+00-1.536682248116D-08 8.200000000000D+01
    2.160300000000D+05
11 24  1 16 14  0  0.0-5.419799126685D-04-1.398348103976D-11 0.000000000000D+00
    1.810000000000D+02 3.940625000000D+01 4.044454104957D-09-3.055755647094D+00
    2.058222889900D-06 1.272070338018D-03 1.061521470547D-05 5.153658287048D+03
    2.232000000000D+05 3.725290298462D-09-1.833550911349D+00 3.725290298462D-09
    9.659701912786D-01 1.756250000000D+02-2.481073089282D+00-7.924258582648D-09
    1.746501276934D-10 1.000000000000D+00 2.297000000000D+03 0.000000000000D+00
    2.000000000000D+00 0.000000000000D+00-8.381903171539D-09 4.370000000000D+02
    2.165400000000D+05
29 24  1 16 14  0  0.0-6.086039356887D-04 5.684341886081D-13 0.000000000000D+00
    6.300000000000D+01-2.896875000000D+01 4.369467898613D-09-2.280172381029D+00
   -1.545995473862D-06 2.536312211305D-03 7.521361112595D-06 5.153656503677D+03
    2.232000000000D+05-3.725290298462D-09-2.853151242002D+00 4.656612873077D-08
    9.735715487285D-01 2.413437500000D+02 2.526736296755D+00-8.081408431337D-09
   -4.557332566879D-10 1.000000000000D+00 2.297000000000D+03 0.000000000000D+00
    2.000000000000D+00 0.000000000000D+00-1.024454832077D-08 6.300000000000D+01
    2.168700000000D+05
28 24  1 16 14  0  0.0-1.005199737847D-04-1.148237060988D-11 0.000000000000D+00
    2.060000000000D+02-3.250000000000D+00 4.477329174080D-09-3.103035885214D-01
    2.421438694000D-08 7.290774956346D-04 1.154839992523D-05 5.153575826645D+03
    2.232000000000D+05-7.450580596924D-09 1.226167104953D+00-1.117587089539D-08
    9.611668314280D-01 1.563750000000D+02 1.717058310211D+00-7.938901980253D-09
    9.250385180071D-11 1.000000000000D+00 2.297000000000D+03 0.000000000000D+00
    2.000000000000D+00 0.000000000000D+00-9.313225746155D-09 9.740000000000D+02
    2.190000000000D+05
 2 24  1 16 14  0  0.0-5.000182427466D-04 5.684341886081D-12 0.000000000000D+00
    9.000000000000D+00 3.296875000000D+01 4.027667768529D-09-1.888385488733D+00
    2.047047019005D-06 1.630330004264D-02 9.700655937195D-06 5.153904323578D+03
    2.232000000000D+05 0.000000000000D+00-1.964991198342D+00 4.060566425323D-07
    9.674991469429D-01 1.971875000000D+02-1.262341438091D+00-7.853184259504D-09
    7.536028191537D-11 1.000000000000D+00 2.297000000000D+03 0.000000000000D+00
    2.000000000000D+00 0.000000000000D+00-1.769512891769D-08 9.000000000000D+00
    2.160180000000D+05 4.000000000000D+00
31 24  1 16 14  0  0.0-2.273386344314D-04-2.273736754432D-13 0.000000000000D+00
    5.800000000000D+01 1.625000000000D+00 4.709839040844D-09 3.264782325460D-01
    3.203749656677D-07 1.060670102015D-02 1.106970012188D-05 5.153670698166D+03
    2.232000000000D+05 1.862645149231D-09 1.281741058688D+00 1.918524503708D-07
    9.540286396937D-01 1.630625000000D+02 6.513927797525D-01-8.154625387165D-09
    8.107480566251D-11 1.000000000000D+00 2.297000000000D+03 0.000000000000D+00
    2.000000000000D+00 0.000000000000D+00-1.350417733192D-08 5.800000000000D+01
    2.163420000000D+05 4.000000000000D+00
 1 24  1 16 14  0  0.0 1.662727445364D-04 1.023181539495D-12 0.000000000000D+00
    6.600000000000D+01 2.728125000000D+01 3.610507534988D-09 1.769256526350D+00
    1.298263669014D-06 1.311321114190D-02 9.980052709579D-06 5.154029022217D+03
    2.232000000000D+05-2.477318048477D-07-1.861195206160D+00-1.899898052216D-07
    9.904348424210D-01 2.047500000000D+02 9.983665882158D-01-7.741751046434D-09
    1.289339420448D-10 1.000000000000D+00 2.297000000000D+03 0.000000000000D+00
    2.000000000000D+00 6.300000000000D+01 5.122274160385D-09 6.600000000000D+01
    2.163780000000D+05 4.000000000000D+00
 3 24  1 16 14  0  0.0 1.300661824644D-04 2.580691216281D-11 0.000000000000D+00
    6.900000000000D+01 1.359375000000D+01 4.259463138023D-09 8.097287293203D-01
    5.513429641724D-07 5.046734004281D-03 5.016103386879D-06 5.153794536591D+03
    2.232000000000D+05-3.911554813385D-08-8.320758562821D-01 7.264316082001D-08
    9.824424762269D-01 2.934062500000D+02 1.077739525869D+00-8.228557038144D-09
    2.346526313668D-10 1.000000000000D+00 2.297000000000D+03 0.000000000000D+00
    2.800000000000D+00 0.000000000000D+00 1.862645149231D-09 6.900000000000D+01
    2.188080000000D+05 4.000000000000D+00
26 24  1 16 14  0  0.0 1.997766084969D-04-3.524291969370D-12 0.000000000000D+00
    7.600000000000D+01 5.640625000000D+01 5.523444359342D-09-4.610745370795D-01
    2.980232238770D-06 8.752499357797D-03 6.090849637985D-06 5.153566726685D+03
    2.232000000000D+05 6.519258022308D-08 2.231386378885D+00 1.043081283569D-07
    9.317985900657D-01 2.450000000000D+02 5.196250170848D-01-8.731792285626D-09
    9.536111503035D-11 1.000000000000D+00 2.297000000000D+03 0.000000000000D+00
    2.000000000000D+00 0.000000000000D+00 6.984919309616D-09 7.600000000000D+01
    2.193720000000D+05 4.000000000000D+00
30 24  1 16 14  0  0.0-4.447293467820D-04 4.661160346586D-12 0.000000000000D+00
    1.400000000000D+02 2.009375000000D+01 5.143428530158D-09 1.080423904472D+00
    1.212581992149D-06 6.699447170831D-03 1.134164631367D-05 5.153709247589D+03
    2.232000000000D+05-2.421438694000D-08 1.263365240828D+00 7.264316082001D-08
    9.351559095230D-01 1.489687500000D+02-2.546728304085D+00-8.368205712214D-09
    5.393081786361D-11 1.000000000000D+00 2.297000000000D+03 0.000000000000D+00
    2.000000000000D+00 0.000000000000D+00 3.725290298462D-09 1.400000000000D+02
    2.160180000000D+05 4.000000000000D+00
 7 24  1 16 14  0  0.0-3.873603418469D-05-9.322320693173D-12 0.000000000000D+00
    6.100000000000D+01 1.612500000000D+01 4.861988235611D-09 1.178803420523D+00
    9.573996067047D-07 1.780391647480D-02 1.174397766590D-05 5.153683734894D+03
    2.232000000000D+05-3.017485141754D-07 1.260785460867D+00 1.173466444016D-07
    9.500218007013D-01 1.548125000000D+02-2.157513992729D+00-8.377848971038D-09
    1.178620522847D-11 1.000000000000D+00 2.297000000000D+03 0.000000000000D+00
    2.000000000000D+00 0.000000000000D+00-1.117587089539D-08 6.100000000000D+01
    2.160180000000D+05 4.000000000000D+00
